CSS (TIANHE)            
1 48274U 21035A   23277.89218446  .00051004  00000+0  53003-3 0  9992
2 48274  41.4727 208.1612 0010049 188.5059 171.5612 15.63701850138980
